IRIDIUM 63              
1 25286U 98021B   25077.55473905  .00000896  00000+0  29947-3 0  9998
2 25286  86.3959 120.1676 0002231  96.6238 263.5213 14.36426948410835
IRIDIUM 69              
1 25319U 98026A   25077.56696668  .00001206  00000+0  37081-3 0  9998
2 25319  86.3984 133.7216 0001915  28.7141 331.4163 14.40826249410019
IRIDIUM 71              
1 25320U 98026B   25077.58612534  .00001021  00000+0  31140-3 0  9997
2 25320  86.3970 128.4223 0003700  61.0989 299.0581 14.41032462410547
IRIDIUM 73              
1 25344U 98032C   25077.55439984  .00001753  00000+0  43377-3 0  9990
2 25344  86.4352  85.3171 0001862  77.5753 282.5661 14.51511845417416
IRIDIUM 82              
1 25467U 98051A   25077.22921650  .00043502  00000+0  14608-2 0  9999
2 25467  86.3730 154.2680 0093126 280.4540  78.6222 15.26516033410052
